NUSAT-49 (KLARA DAN VO*)
1 60500U 24149AJ  26068.79810190  .00012912  00000+0  43568-3 0  9991
2 60500  97.3807 150.7380 0001132 286.7761  73.3356 15.30828857 86935
STARLINK-36110          
1 66945U 25286W   26068.24281598  .00011206  00000+0  39007-3 0  9995
2 66945  53.1609   0.8560 0001106  73.5701 286.5422 15.30184781 15346
